ASTROCAST-0103          
1 47487U 21006CC  26068.70056502  .00087857  00000+0  63760-3 0  9995
2 47487  97.2627 138.0845 0005706 147.8600 212.3013 15.73114428285528
STARLINK-11511 [DTC]    
1 62468U 24254G   26068.45189844  .00067135  00000+0  52215-3 0  9997
2 62468  43.0004 224.4302 0002901 257.4592 102.5951 15.70851554 69360
